{
  "norad_id": 57855,
  "name": "STARLINK-30392",
  "history": [
    {
      "epoch": "2026-03-28T16:56:27.421152",
      "apogee_km": 476.20368974036046,
      "perigee_km": 474.2404764974108,
      "latitude_deg": -8.033449444938931,
      "longitude_deg": 33.26380128017627,
      "semi_major_axis_km": 6853.359083118886,
      "eccentricity": 0.00014323,
      "inclination_deg": 53.1609,
      "raan_deg": 195.4945,
      "arg_perigee_deg": 88.5616,
      "mean_anomaly_deg": 271.5549,
      "mean_motion_rev_day": 15.30197651
    }
  ]
}