{"fetched_at":"2026-03-29T16:36:15Z","count":15609,"tles":[{"name":"STARLINK-30392","line1":"1 57855U 23141R   26087.70587293 -.00000223  00000+0  46141-5 0  9993","line2":"2 57855  53.1609 195.4945 0001432  88.5616 271.5549 15.30197651143242","category":"Starlink"}]}